1 47474U 21006BP  21024.66290127 -.00000062  00000-0  00000-0 0  9996
2 47474  97.4900  88.3393 0003900 190.8600 152.1800 15.10431288   311
1 47474U 21006BP  21027.44633713  .00000920  00000-0  57934-4 0  9991
2 47474  97.5075  91.0722 0007536 235.9558 124.0957 15.11619526   735
1 47474U 21006BP  21027.57872935  .00000957  00000-0  60103-4 0  9998
2 47474  97.5075  91.2022 0007544 235.3889 124.6630 15.11620012   758
1 47474U 21006BP  21027.90970979  .00000902  00000-0  56859-4 0  9995
2 47474  97.5074  91.5273 0007566 234.1371 125.9157 15.11620295   802
1 47474U 21006BP  21028.57167033  .00000842  00000-0  53306-4 0  9995
2 47474  97.5073  92.1775 0007635 231.5966 128.4579 15.11621252   904
1 47474U 21006BP  21028.83645439  .00000793  00000-0  50434-4 0  9999
2 47474  97.5072  92.4376 0007654 230.6786 129.3766 15.11621604   947
1 47474U 21006BP  21028.90265056  .00000710  00000-0  45520-4 0  9999
2 47474  97.5072  92.5027 0007662 230.3274 129.7281 15.11621176   950
1 47474U 21006BP  21029.56461055  .00000661  00000-0  42680-4 0  9998
2 47474  97.5070  93.1528 0007720 227.6438 132.4140 15.11622238  1054
1 47474U 21006BP  21029.89559058  .00000547  00000-0  35926-4 0  9993
2 47474  97.5070  93.4780 0007745 226.5617 133.4970 15.11622261  1105
1 47474U 21006BP  21030.16037452  .00000509  00000-0  33701-4 0  9991
2 47474  97.5069  93.7380 0007756 225.4246 134.6352 15.11622572  1146
1 47474U 21006BP  21030.55755036  .00000439  00000-0  29568-4 0  9997
2 47474  97.5069  94.1281 0007792 224.0110 136.0500 15.11622856  1209
1 47474U 21006BP  21031.88146898  .00000330  00000-0  23162-4 0  9998
2 47474  97.5067  95.4285 0007881 218.8575 141.2089 15.11624291  1407
1 47474U 21006BP  21032.14625258  .00000335  00000-0  23443-4 0  9997
2 47474  97.5067  95.6886 0007905 217.9815 142.0859 15.11624633  1448
1 47474U 21006BP  21032.67581959  .00000493  00000-0  32771-4 0  9993
2 47474  97.5067  96.2087 0007925 215.9757 144.0941 15.11625873  1523
1 47474U 21006BP  21033.86734259  .00001636  00000-0  10000-3 0  9998
2 47474  97.5049  97.3790 0007982 212.8072 147.2686 15.11630593  1701
1 47474U 21006BP  21034.39690903  .00000841  00000-0  53256-4 0  9992
2 47474  97.5064  97.8991 0008051 209.0889 150.9894 15.11630124  1788
1 47474U 21006BP  21035.45603937  .00001208  00000-0  74802-4 0  9999
2 47474  97.5048  98.9376 0008405 203.1063 156.9652 15.11630018  1949
1 47474U 21006BP  21035.91941037  .00000614  00000-0  39894-4 0  9998
2 47474  97.5062  99.3945 0008196 203.4959 156.5898 15.11631120  2018
1 47474U 21006BP  21036.44897539  .00000638  00000-0  41275-4 0  9996
2 47474  97.5061  99.9146 0008254 201.5523 158.5361 15.11631943  2095
1 47474U 21006BP  21036.71375773  .00000655  00000-0  42299-4 0  9993
2 47474  97.5060 100.1747 0008279 200.6122 159.4776 15.11632405  2137
1 47474U 21006BP  21036.91234458  .00000567  00000-0  37118-4 0  9995
2 47474  97.5059 100.3697 0008302 199.9219 160.1688 15.11632145  2160
1 47474U 21006BP  21037.11093131  .00000560  00000-0  36700-4 0  9998
2 47474  97.5059 100.5647 0008321 199.2590 160.8327 15.11632379  2192
1 47474U 21006BP  21037.90527771  .00000550  00000-0  36080-4 0  9997
2 47474  97.5057 101.3449 0008403 196.4614 163.6345 15.11633456  2318
1 47474U 21006BP  21038.17005968  .00000535  00000-0  35239-4 0  9994
2 47474  97.5057 101.6049 0008427 195.6476 164.4495 15.11633803  2355
1 47474U 21006BP  21038.43484137  .00000733  00000-0  46853-4 0  9996
2 47474  97.5057 101.8649 0008449 194.7224 165.3761 15.11635333  2398
1 47474U 21006BP  21038.69962297  .00000825  00000-0  52305-4 0  9993
2 47474  97.5056 102.1250 0008472 193.8296 166.2703 15.11636362  2438
1 47474U 21006BP  21039.42777323  .00000500  00000-0  33140-4 0  9995
2 47474  97.5055 102.8401 0008544 191.3672 168.7367 15.11635661  2549
1 47474U 21006BP  21039.89114120  .00000448  00000-0  30111-4 0  9992
2 47474  97.5054 103.2951 0008589 189.7380 170.3685 15.11636114  2613
1 47474U 21006BP  21040.48689971  .00000463  00000-0  30958-4 0  9996
2 47474  97.5053 103.8802 0008645 187.6909 172.4190 15.11637094  2702
1 47474U 21006BP  21040.81787659  .00000456  00000-0  30552-4 0  9997
2 47474  97.5053 104.2052 0008672 186.5277 173.5842 15.11637510  2754
1 47474U 21006BP  21040.88407202  .00000402  00000-0  27423-4 0  9991
2 47474  97.5052 104.2702 0008679 186.2802 173.8321 15.11637291  2765
1 47474U 21006BP  21041.47983043  .00000367  00000-0  25356-4 0  9992
2 47474  97.5052 104.8553 0008738 184.1850 175.9309 15.11637795  2859
1 47474U 21006BP  21041.87700256  .00000371  00000-0  25587-4 0  9990
2 47474  97.5051 105.2454 0008773 182.7916 177.3267 15.11638226  2915
1 47474U 21006BP  21042.14178394  .00000377  00000-0  25907-4 0  9995
2 47474  97.5050 105.5054 0008800 181.8692 178.2507 15.11638530  2954
1 47474U 21006BP  21042.40656529  .00000393  00000-0  26874-4 0  9997
2 47474  97.5050 105.7654 0008826 180.9499 179.1716 15.11638844  2999
1 47474U 21006BP  21042.86993257  .00000414  00000-0  28122-4 0  9991
2 47474  97.5049 106.2205 0008869 179.3044 180.8200 15.11639344  3062
1 47474U 21006BP  21043.06851852  .00000420  00000-0  28434-4 0  9991
2 47474  97.5049 106.4155 0008891 178.6253 181.5003 15.11639537  3093
1 47474U 21006BP  21043.73047153  .00000444  00000-0  29856-4 0  9991
2 47474  97.5047 107.0655 0008957 176.3330 183.7968 15.11640172  3199
1 47474U 21006BP  21043.79666681  .00000448  00000-0  30099-4 0  9995
2 47474  97.5047 107.1305 0008962 176.1124 184.0177 15.11640240  3201
1 47474U 21006BP  21044.39242391  .00000585  00000-0  38129-4 0  9994
2 47474  97.5046 107.7155 0009024 174.0267 186.1072 15.11641532  3295
1 47474U 21006BP  21044.78959513  .00000668  00000-0  43038-4 0  9995
2 47474  97.5045 108.1055 0009056 172.7187 187.4177 15.11642374  3351
1 47474U 21006BP  21044.92198557  .00000621  00000-0  40266-4 0  9993
2 47474  97.5044 108.2355 0009075 172.2672 187.8700 15.11642227  3374
1 47474U 21006BP  21045.45154718  .00000566  00000-0  37019-4 0  9993
2 47474  97.5043 108.7555 0009127 170.5429 189.5975 15.11642428  3454
1 47474U 21006BP  21045.78252294  .00000576  00000-0  37610-4 0  9995
2 47474  97.5042 109.0805 0009156 169.4812 190.6611 15.11642844  3508
1 47474U 21006BP  21046.11349866  .00000528  00000-0  34785-4 0  9992
2 47474  97.5041 109.4055 0009187 168.4680 191.6762 15.11642941  3555
1 47474U 21006BP  21046.44447422  .00000520  00000-0  34300-4 0  9990
2 47474  97.5041 109.7305 0009218 167.4242 192.7220 15.11643285  3603
1 47474U 21006BP  21046.77544963  .00000528  00000-0  34787-4 0  9991
2 47474  97.5040 110.0555 0009244 166.3904 193.7577 15.11643767  3652
1 47474U 21006BP  21047.17262001  .00000572  00000-0  37403-4 0  9993
2 47474  97.5039 110.4454 0009278 165.1620 194.9884 15.11644537  3718
1 47474U 21006BP  21048.43032518  .00000480  00000-0  31977-4 0  9999
2 47474  97.5037 111.6803 0009383 161.2338 198.9240 15.11645904  3907
1 47474U 21006BP  21048.89368978  .00000483  00000-0  32124-4 0  9999
2 47474  97.5037 112.1353 0009423 159.7692 200.3913 15.11646685  3972
1 47474U 21006BP  21049.42324921  .00000470  00000-0  31390-4 0  9999
2 47474  97.5037 112.6553 0009463 158.1027 202.0609 15.11647444  4053
1 47474U 21006BP  21049.75422382  .00000442  00000-0  29720-4 0  9998
2 47474  97.5036 112.9803 0009488 157.0472 203.1184 15.11647790  4102
1 47474U 21006BP  21050.48236759  .00000428  00000-0  28883-4 0  9994
2 47474  97.5036 113.6953 0009554 154.7240 205.4460 15.11648733  4219
1 47474U 21006BP  21051.14431611  .00000444  00000-0  29878-4 0  9995
2 47474  97.5035 114.3452 0009604 152.6516 207.5221 15.11649676  4315
1 47474U 21006BP  21051.40909515  .00000489  00000-0  32471-4 0  9999
2 47474  97.5035 114.6052 0009630 151.7806 208.3948 15.11650313  4354
1 47474U 21006BP  21051.80626397  .00000521  00000-0  34355-4 0  9997
2 47474  97.5035 114.9952 0009664 150.5007 209.6770 15.11650956  4410
1 47474U 21006BP  21052.46821068  .00000740  00000-0  47265-4 0  9999
2 47474  97.5034 115.6451 0009741 148.2842 211.8977 15.11653226  4516
1 47474U 21006BP  21052.79918412  .00000789  00000-0  50120-4 0  9992
2 47474  97.5033 115.9701 0009760 147.2423 212.9414 15.11653946  4563
1 47474U 21006BP  21053.46113041  .00000910  00000-0  57245-4 0  9993
2 47474  97.5031 116.6200 0009819 145.1383 215.0492 15.11655612  4663
1 47474U 21006BP  21053.79210330  .00000954  00000-0  59807-4 0  9992
2 47474  97.5030 116.9449 0009839 144.1165 216.0728 15.11656390  4712
1 47474U 21006BP  21053.85829788  .00000988  00000-0  61814-4 0  9990
2 47474  97.5030 117.0099 0009840 143.9206 216.2691 15.11656661  4723
1 47474U 21006BP  21054.45404861  .00001009  00000-0  63045-4 0  9991
2 47474  97.5029 117.5948 0009883 142.1022 218.0905 15.11657830  4810
1 47474U 21006BP  21054.91740978  .00001089  00000-0  67760-4 0  9990
2 47474  97.5027 118.0497 0009914 140.6850 219.5102 15.11659151  4880
1 47474U 21006BP  21055.44696507  .00001054  00000-0  65669-4 0  9995
2 47474  97.5026 118.5696 0009945 139.1266 221.0712 15.11660044  4960
1 47474U 21006BP  21055.77793679  .00001083  00000-0  67401-4 0  9997
2 47474  97.5025 118.8945 0009961 138.1353 222.0641 15.11660944  5011
1 47474U 21006BP  21056.43987939  .00001158  00000-0  71772-4 0  9994
2 47474  97.5023 119.5444 0010002 136.1506 224.0519 15.11662985  5111
1 47474U 21006BP  21056.77085061  .00001068  00000-0  66520-4 0  9991
2 47474  97.5022 119.8693 0010023 135.1656 225.0386 15.11663318  5166
1 47474U 21006BP  21056.96943279  .00000992  00000-0  62052-4 0  9997
2 47474  97.5021 120.0643 0010028 134.6291 225.5759 15.11663560  5199
1 47474U 21006BP  21057.76376295  .00000982  00000-0  61416-4 0  9996
2 47474  97.5020 120.8440 0010063 132.2581 227.9504 15.11665406  5315
1 47474U 21006BP  21057.89615119  .00000837  00000-0  52911-4 0  9990
2 47474  97.5019 120.9740 0010073 131.8712 228.3379 15.11664973  5334
1 47474U 21006BP  21058.42570392  .00000849  00000-0  53638-4 0  9993
2 47474  97.5019 121.4939 0010086 130.3118 229.8995 15.11666312  5416
